COMMENT,ORIGINATOR,NORAD_CAT_ID,OBJECT_NAME,OBJECT_TYPE,CLASSIFICATION_TYPE,INTLDES,EPOCH,EPOCH_MICROSECONDS,MEAN_MOTION,ECCENTRICITY,INCLINATION,RA_OF_ASC_NODE,ARG_OF_PERICENTER,MEAN_ANOMALY,EPHEMERIS_TYPE,ELEMENT_SET_NO,REV_AT_EPOCH,BSTAR,MEAN_MOTION_DOT,MEAN_MOTION_DDOT,FILE,TLE_LINE0,TLE_LINE1,TLE_LINE2,OBJECT_ID,OBJECT_NUMBER,SEMIMAJOR_AXIS,PERIOD,APOGEE,PERIGEE,DECAYED
"GENERATED VIA SPACETRACK.ORG API","18 SPCS","48886","SPACEBEE-102","PAYLOAD","U","21059H","2022-08-28 15:59:56","431104","15.16688747","0.0007575","97.5639","9.9552","209.2043","150.8768","0","999","6487","0.00029983","0.00005808","0","3550014","0 SPACEBEE-102","1 48886U 21059H   22240.66662536  .00005808  00000-0  29983-3 0  9996","2 48886  97.5639   9.9552 0007575 209.2043 150.8768 15.16688747 64872","2021-059H","48886","6893.993","94.944","521.081","510.636","0"
"GENERATED VIA SPACETRACK.ORG API","18 SPCS","48886","SPACEBEE-102","PAYLOAD","U","21059H","2022-08-29 03:04:58","118016","15.16692033","0.0007611","97.564","10.4158","207.5542","152.5288","0","999","6494","0.00027473","0.00005317","0","3550244","0 SPACEBEE-102","1 48886U 21059H   22241.12845044  .00005317  00000-0  27473-3 0  9992","2 48886  97.5640  10.4158 0007611 207.5542 152.5288 15.16692033 64946","2021-059H","48886","6893.983","94.943","521.095","510.601","0"
"GENERATED VIA SPACETRACK.ORG API","18 SPCS","48886","SPACEBEE-102","PAYLOAD","U","21059H","2022-08-29 07:49:58","804320","15.16694413","0.0007628","97.564","10.6132","206.867","153.2168","0","999","6497","0.00028311","0.00005481","0","3550737","0 SPACEBEE-102","1 48886U 21059H   22241.32637505  .00005481  00000-0  28311-3 0  9999","2 48886  97.5640  10.6132 0007628 206.8670 153.2168 15.16694413 64974","2021-059H","48886","6893.976","94.943","521.100","510.583","0"
"GENERATED VIA SPACETRACK.ORG API","18 SPCS","48886","SPACEBEE-102","PAYLOAD","U","21059H","2022-08-29 18:55:00","359904","15.16703283","0.0007665","97.5641","11.0738","205.4448","154.6409","0","999","6504","0.00042462","0.00008261","0","3551093","0 SPACEBEE-102","1 48886U 21059H   22241.78819861  .00008261  00000-0  42462-3 0  9998","2 48886  97.5641  11.0738 0007665 205.4448 154.6409 15.16703283 65049","2021-059H","48886","6893.949","94.943","521.099","510.530","0"
"GENERATED VIA SPACETRACK.ORG API","18 SPCS","48886","SPACEBEE-102","PAYLOAD","U","21059H","2022-08-30 07:35:01","838400","15.16705135","0.0007726","97.5642","11.6002","203.4526","156.6356","0","999","6512","0.00029608","0.00005738","0","3551785","0 SPACEBEE-102","1 48886U 21059H   22242.31599350  .00005738  00000-0  29608-3 0  9999","2 48886  97.5642  11.6002 0007726 203.4526 156.6356 15.16705135 65123","2021-059H","48886","6893.944","94.943","521.135","510.483","0"
"GENERATED VIA SPACETRACK.ORG API","18 SPCS","48886","SPACEBEE-102","PAYLOAD","U","21059H","2022-08-30 07:35:01","838400","15.16705135","0.0007726","97.5642","11.6002","203.4526","156.6356","0","999","6512","0.00029608","0.00005738","0","3551880","0 SPACEBEE-102","1 48886U 21059H   22242.31599350  .00005738  00000-0  29608-3 0  9999","2 48886  97.5642  11.6002 0007726 203.4526 156.6356 15.16705135 65123","2021-059H","48886","6893.944","94.943","521.135","510.483","0"
"GENERATED VIA SPACETRACK.ORG API","18 SPCS","48886","SPACEBEE-102","PAYLOAD","U","21059H","2022-08-30 20:15:03","156192","15.16712883","0.0007767","97.5643","12.1267","201.4908","158.6","0","999","6520","0.000334","0.00006483","0","3552179","0 SPACEBEE-102","1 48886U 21059H   22242.84378653  .00006483  00000-0  33400-3 0  9991","2 48886  97.5643  12.1267 0007767 201.4908 158.6000 15.16712883 65205","2021-059H","48886","6893.920","94.942","521.140","510.431","0"
"GENERATED VIA SPACETRACK.ORG API","18 SPCS","48886","SPACEBEE-102","PAYLOAD","U","21059H","2022-08-31 07:20:04","136352","15.16719102","0.0007801","97.5643","12.5873","199.7205","160.3728","0","999","6527","0.00033849","0.00006573","0","3552511","0 SPACEBEE-102","1 48886U 21059H   22243.30560343  .00006573  00000-0  33849-3 0  9999","2 48886  97.5643  12.5873 0007801 199.7205 160.3728 15.16719102 65275","2021-059H","48886","6893.901","94.942","521.144","510.389","0"
"GENERATED VIA SPACETRACK.ORG API","18 SPCS","48886","SPACEBEE-102","PAYLOAD","U","21059H","2022-08-31 15:15:04","760928","15.16722581","0.0007825","97.5643","12.9164","198.4343","161.6607","0","999","6532","0.00032327","0.00006275","0","3552678","0 SPACEBEE-102","1 48886U 21059H   22243.63547177  .00006275  00000-0  32327-3 0  9994","2 48886  97.5643  12.9164 0007825 198.4343 161.6607 15.16722581 65328","2021-059H","48886","6893.891","94.942","521.150","510.361","0"
"GENERATED VIA SPACETRACK.ORG API","18 SPCS","48886","SPACEBEE-102","PAYLOAD","U","21059H","2022-08-31 21:35:05","189568","15.167257","0.0007846","97.5643","13.1796","197.4173","162.6792","0","999","6536","0.00030789","0.00005973","0","3552761","0 SPACEBEE-102","1 48886U 21059H   22243.89936562  .00005973  00000-0  30789-3 0  9996","2 48886  97.5643  13.1796 0007846 197.4173 162.6792 15.16725700 65361","2021-059H","48886","6893.881","94.941","521.155","510.338","0"
"GENERATED VIA SPACETRACK.ORG API","18 SPCS","48886","SPACEBEE-102","PAYLOAD","U","21059H","2022-09-01 08:40:05","828448","15.16731738","0.0007879","97.5643","13.6402","195.6226","164.4764","0","999","6543","0.00030718","0.0000596","0","3553574","0 SPACEBEE-102","1 48886U 21059H   22244.36117857  .00005960  00000-0  30718-3 0  9995","2 48886  97.5643  13.6402 0007879 195.6226 164.4764 15.16731738 65430","2021-059H","48886","6893.863","94.941","521.160","510.296","0"
"GENERATED VIA SPACETRACK.ORG API","18 SPCS","48886","SPACEBEE-102","PAYLOAD","U","21059H","2022-09-01 19:45:06","332544","15.16736078","0.0007917","97.5642","14.1009","193.9456","166.1559","0","999","6550","0.00027095","0.00005249","0","3554009","0 SPACEBEE-102","1 48886U 21059H   22244.82298996  .00005249  00000-0  27095-3 0  9994","2 48886  97.5642  14.1009 0007917 193.9456 166.1559 15.16736078 65508","2021-059H","48886","6893.850","94.941","521.173","510.257","0"
"GENERATED VIA SPACETRACK.ORG API","18 SPCS","48886","SPACEBEE-102","PAYLOAD","U","21059H","2022-09-02 03:40:06","624480","15.16739494","0.0007947","97.5642","14.4299","192.7369","167.3664","0","999","6555","0.00026435","0.0000512","0","3554435","0 SPACEBEE-102","1 48886U 21059H   22245.15285445  .00005120  00000-0  26435-3 0  9991","2 48886  97.5642  14.4299 0007947 192.7369 167.3664 15.16739494 65555","2021-059H","48886","6893.840","94.940","521.183","510.226","0"
"GENERATED VIA SPACETRACK.ORG API","18 SPCS","48886","SPACEBEE-102","PAYLOAD","U","21059H","2022-09-02 08:25:06","763008","15.16741846","0.0007962","97.5642","14.6273","192.0546","168.0497","0","999","6558","0.00026477","0.00005129","0","3555279","0 SPACEBEE-102","1 48886U 21059H   22245.35077272  .00005129  00000-0  26477-3 0  9995","2 48886  97.5642  14.6273 0007962 192.0546 168.0497 15.16741846 65585","2021-059H","48886","6893.833","94.940","521.186","510.209","0"
"GENERATED VIA SPACETRACK.ORG API","18 SPCS","48886","SPACEBEE-102","PAYLOAD","U","21059H","2022-09-02 16:20:06","933984","15.16748192","0.0007991","97.564","14.9563","190.9682","169.1377","0","999","6563","0.00034285","0.00006664","0","3555599","0 SPACEBEE-102","1 48886U 21059H   22245.68063581  .00006664  00000-0  34285-3 0  9990","2 48886  97.5640  14.9563 0007991 190.9682 169.1377 15.16748192 65634","2021-059H","48886","6893.813","94.940","521.187","510.169","0"
"GENERATED VIA SPACETRACK.ORG API","18 SPCS","48886","SPACEBEE-102","PAYLOAD","U","21059H","2022-09-03 08:10:07","34880","15.16755965","0.0008048","97.5639","15.6144","188.6774","171.4321","0","999","6573","0.00033993","0.00006608","0","3556405","0 SPACEBEE-102","1 48886U 21059H   22246.34035920  .00006608  00000-0  33993-3 0  9993","2 48886  97.5639  15.6144 0008048 188.6774 171.4321 15.16755965 65737","2021-059H","48886","6893.790","94.939","521.203","510.107","0"
"GENERATED VIA SPACETRACK.ORG API","18 SPCS","48886","SPACEBEE-102","PAYLOAD","U","21059H","2022-09-03 08:10:07","34880","15.16755965","0.0008048","97.5639","15.6144","188.6774","171.4321","0","999","6573","0.00033993","0.00006608","0","3556494","0 SPACEBEE-102","1 48886U 21059H   22246.34035920  .00006608  00000-0  33993-3 0  9993","2 48886  97.5639  15.6144 0008048 188.6774 171.4321 15.16755965 65737","2021-059H","48886","6893.790","94.939","521.203","510.107","0"
"GENERATED VIA SPACETRACK.ORG API","18 SPCS","48886","SPACEBEE-102","PAYLOAD","U","21059H","2022-09-03 20:50:06","873504","15.16764484","0.0008078","97.5637","16.1408","187.0436","173.0685","0","999","6581","0.00039658","0.00007724","0","3556957","0 SPACEBEE-102","1 48886U 21059H   22246.86813511  .00007724  00000-0  39658-3 0  9994","2 48886  97.5637  16.1408 0008078 187.0436 173.0685 15.16764484 65811","2021-059H","48886","6893.764","94.939","521.198","510.060","0"
"GENERATED VIA SPACETRACK.ORG API","18 SPCS","48886","SPACEBEE-102","PAYLOAD","U","21059H","2022-09-04 07:55:06","500640","15.16770034","0.0008122","97.5637","16.6013","185.4687","174.6459","0","999","6588","0.00036422","0.00007089","0","3557975","0 SPACEBEE-102","1 48886U 21059H   22247.32993635  .00007089  00000-0  36422-3 0  9992","2 48886  97.5637  16.6013 0008122 185.4687 174.6459 15.16770034 65889","2021-059H","48886","6893.747","94.939","521.211","510.013","0"
"GENERATED VIA SPACETRACK.ORG API","18 SPCS","48886","SPACEBEE-102","PAYLOAD","U","21059H","2022-09-04 14:15:06","189696","15.16778531","0.0008139","97.5636","16.8646","184.7324","175.3833","0","999","6592","0.00051414","0.00010041","0","3558182","0 SPACEBEE-102","1 48886U 21059H   22247.59382164  .00010041  00000-0  51414-3 0  9990","2 48886  97.5636  16.8646 0008139 184.7324 175.3833 15.16778531 65929","2021-059H","48886","6893.721","94.938","521.197","509.976","0"
